ADRAS-J                 
1 58992U 24034A   24276.42180257  .00014720  00000+0  13030-2 0  9998
2 58992  98.2240 254.4856 0044877  57.6842 302.8712 14.95602657 33886
